
# Worst residual: 10.63 km
# MJD 56343.000000 (2013 Feb 20  0:00)
2010-050B = RV223A9 = Chang'e 2 booster
1 37175U 10050B   13051.49922241  .00000000  00000-0  00000-0 2  4652
2 37175 058.1200 287.1930 2167166 314.0900 291.7472 00.02593906    03

# Worst residual: 11.81 km
# MJD 56344.000000 (2013 Feb 21  0:00)
2010-050B = RV223A9 = Chang'e 2 booster
1 37175U 10050B   13052.49922241  .00000000  00000-0  00000-0 2  4653
2 37175 058.0301 287.0853 2187263 314.1252 301.3204 00.02589817    05

# Worst residual: 12.02 km
# MJD 56345.000000 (2013 Feb 22  0:00)
2010-050B = RV223A9 = Chang'e 2 booster
1 37175U 10050B   13053.49922241  .00000000  00000-0  00000-0 2  4654
2 37175 057.9756 286.9903 2208920 314.2795 310.7692 00.02585704    04

# Worst residual: 11.94 km
# MJD 56346.000000 (2013 Feb 23  0:00)
2010-050B = RV223A9 = Chang'e 2 booster
1 37175U 10050B   13054.49922241  .00000000  00000-0  00000-0 2  4655
2 37175 057.9516 286.9231 2232526 314.5032 320.1342 00.02580487    08

# Worst residual: 11.64 km
# MJD 56347.000000 (2013 Feb 24  0:00)
2010-050B = RV223A9 = Chang'e 2 booster
1 37175U 10050B   13055.49922241  .00000000  00000-0  00000-0 2  4656
2 37175 057.9466 286.8934 2258395 314.7867 329.4129 00.02573555    04

# Worst residual: 11.19 km
# MJD 56348.000000 (2013 Feb 25  0:00)
2010-050B = RV223A9 = Chang'e 2 booster
1 37175U 10050B   13056.49922241  .00000000  00000-0  00000-0 2  4657
2 37175 057.9456 286.9041 2286643 315.1447 338.5810 00.02564540    01

# Worst residual: 12.07 km
# MJD 56349.000000 (2013 Feb 26  0:00)
2010-050B = RV223A9 = Chang'e 2 booster
1 37175U 10050B   13057.49922241  .00000000  00000-0  00000-0 2  4658
2 37175 057.9333 286.9488 2316764 315.6077 347.6019 00.02553355    06

# Worst residual: 13.03 km
# MJD 56350.000000 (2013 Feb 27  0:00)
2010-050B = RV223A9 = Chang'e 2 booster
1 37175U 10050B   13058.49922241  .00000000  00000-0  00000-0 2  4659
2 37175 057.8984 287.0136 2347267 316.2087 356.4402 00.02540294    01

# Worst residual: 13.09 km
# MJD 56351.000000 (2013 Feb 28  0:00)
2010-050B = RV223A9 = Chang'e 2 booster
1 37175U 10050B   13059.49922241  .00000000  00000-0  00000-0 2  4650
2 37175 057.8369 287.0807 2375460 316.9662 005.0792 00.02526156    05

# Worst residual: 16.06 km
# MJD 56352.000000 (2013 Mar  1  0:00)
2010-050B = RV223A9 = Chang'e 2 booster
1 37175U 10050B   13060.49922241  .00000000  00000-0  00000-0 2  4652
2 37175 057.7515 287.1337 2397729 317.8626 013.5406 00.02512249    02

# Worst residual: 17.82 km
# MJD 56353.000000 (2013 Mar  2  0:00)
2010-050B = RV223A9 = Chang'e 2 booster
1 37175U 10050B   13061.49922241  .00000000  00000-0  00000-0 2  4653
2 37175 057.6482 287.1619 2410738 318.8365 021.8921 00.02500031    04

# Worst residual: 18.22 km
# MJD 56354.000000 (2013 Mar  3  0:00)
2010-050B = RV223A9 = Chang'e 2 booster
1 37175U 10050B   13062.49922241  .00000000  00000-0  00000-0 2  4654
2 37175 057.5327 287.1593 2413184 319.8040 030.2252 00.02490393    01

# Worst residual: 17.61 km
# MJD 56355.000000 (2013 Mar  4  0:00)
2010-050B = RV223A9 = Chang'e 2 booster
1 37175U 10050B   13063.49922241  .00000000  00000-0  00000-0 2  4655
2 37175 057.4100 287.1221 2406562 320.7070 038.6061 00.02483106    07

# Worst residual: 15.64 km
# MJD 56356.000000 (2013 Mar  5  0:00)
2010-050B = RV223A9 = Chang'e 2 booster
1 37175U 10050B   13064.49922241  .00000000  00000-0  00000-0 2  4656
2 37175 057.2892 287.0503 2392738 321.5141 047.0754 00.02477755    08

# Worst residual: 14.62 km
# MJD 56357.000000 (2013 Mar  6  0:00)
2010-050B = RV223A9 = Chang'e 2 booster
1 37175U 10050B   13065.49922241  .00000000  00000-0  00000-0 2  4657
2 37175 057.1800 286.9492 2375951 322.2794 055.5695 00.02472231    03

# Worst residual: 12.44 km
# MJD 56358.000000 (2013 Mar  7  0:00)
2010-050B = RV223A9 = Chang'e 2 booster
1 37175U 10050B   13066.49922241  .00000000  00000-0  00000-0 2  4658
2 37175 057.0933 286.8330 2354296 322.9179 064.1860 00.02468184    04

# Worst residual: 12.77 km
# MJD 56359.000000 (2013 Mar  8  0:00)
2010-050B = RV223A9 = Chang'e 2 booster
1 37175U 10050B   13067.49922241  .00000000  00000-0  00000-0 2  4659
2 37175 057.0319 286.7157 2328852 323.3857 072.9714 00.02465789    08

# Worst residual: 14.12 km
# MJD 56360.000000 (2013 Mar  9  0:00)
2010-050B = RV223A9 = Chang'e 2 booster
1 37175U 10050B   13068.49922241  .00000000  00000-0  00000-0 2  4650
2 37175 056.9938 286.6083 2300462 323.6078 082.0149 00.02465779    08

# Worst residual: 15.65 km
# MJD 56361.000000 (2013 Mar 10  0:00)
2010-050B = RV223A9 = Chang'e 2 booster
1 37175U 10050B   13069.49922241  .00000000  00000-0  00000-0 2  4651
2 37175 056.9735 286.5149 2270755 323.5207 091.4019 00.02468637    05

# Worst residual: 17.35 km
# MJD 56362.000000 (2013 Mar 11  0:00)
2010-050B = RV223A9 = Chang'e 2 booster
1 37175U 10050B   13070.49922241  .00000000  00000-0  00000-0 2  4653
2 37175 056.9655 286.4331 2241899 323.0879 101.1966 00.02474461    07

# Worst residual: 19.22 km
# MJD 56363.000000 (2013 Mar 12  0:00)
2010-050B = RV223A9 = Chang'e 2 booster
1 37175U 10050B   13071.49922241  .00000000  00000-0  00000-0 2  4654
2 37175 056.9664 286.3552 2216128 322.3066 111.4317 00.02482955    09

# Worst residual: 21.33 km
# MJD 56364.000000 (2013 Mar 13  0:00)
2010-050B = RV223A9 = Chang'e 2 booster
1 37175U 10050B   13072.49922241  .00000000  00000-0  00000-0 2  4655
2 37175 056.9763 286.2700 2195207 321.2050 122.1086 00.02493471    05

# Worst residual: 23.90 km
# MJD 56365.000000 (2013 Mar 14  0:00)
2010-050B = RV223A9 = Chang'e 2 booster
1 37175U 10050B   13073.49922241  .00000000  00000-0  00000-0 2  4656
2 37175 056.9993 286.1655 2179953 319.8295 133.2090 00.02505072    01

# Worst residual: 27.31 km
# MJD 56366.000000 (2013 Mar 15  0:00)
2010-050B = RV223A9 = Chang'e 2 booster
1 37175U 10050B   13074.49922241  .00000000  00000-0  00000-0 2  4657
2 37175 057.0434 286.0303 2169746 318.2247 144.7160 00.02516504    08

# Worst residual: 32.05 km
# MJD 56367.000000 (2013 Mar 16  0:00)
2010-050B = RV223A9 = Chang'e 2 booster
1 37175U 10050B   13075.49922241  .00000000  00000-0  00000-0 2  4658
2 37175 057.1197 285.8563 2162076 316.4015 156.6500 00.02526057    06
